{"type": "FeatureCollection", "features": [{"type": "Feature", "properties": {"name": "geocerca", "radio_m": 500.0}, "geometry": {"type": "Polygon", "coordinates": [[[-69.5436, -41.324708444125044], [-69.543078691622, -41.32472553585119], [-69.54256135071554, -41.32477668095126], [-69.54205191455729, -41.32486149018016], [-69.54155426026402, -41.32497931808846], [-69.5410721752854, -41.32512926793462], [-69.54060932857918, -41.32531019850977], [-69.5401692426883, -41.325520732822994], [-69.5397552669321, -41.32575926858103], [-69.53937055191608, -41.326023990382744], [-69.53901802555377, -41.326312883535365], [-69.53870037078367, -41.32662374938757], [-69.5384200051504, -41.326954222062525], [-69.53817906240569, -41.327301786463615], [-69.53797937626932, -41.327663797415894], [-69.53782246647337, -41.32803749979742], [-69.53770952719613, -41.32842004950742], [-69.53764141797369, -41.32880853511163], [-69.53761865715836, -41.3292], [-69.53764141797369, -41.329591464888374], [-69.53770952719613, -41.32997995049258], [-69.53782246647337, -41.33036250020258], [-69.53797937626932, -41.330736202584106], [-69.53817906240569, -41.331098213536386], [-69.5384200051504, -41.331445777937475], [-69.53870037078367, -41.33177625061243], [-69.53901802555377, -41.332087116464635], [-69.53937055191608, -41.332376009617256], [-69.5397552669321, -41.33264073141897], [-69.5401692426883, -41.332879267177006], [-69.54060932857918, -41.33308980149023], [-69.5410721752854, -41.33327073206538], [-69.54155426026402, -41.33342068191154], [-69.54205191455729, -41.33353850981984], [-69.54256135071554, -41.33362331904874], [-69.543078691622, -41.333674464148814], [-69.5436, -41.33369155587496], [-69.544121308378, -41.333674464148814], [-69.54463864928445, -41.33362331904874], [-69.5451480854427, -41.33353850981984], [-69.54564573973597, -41.33342068191154], [-69.5461278247146, -41.33327073206538], [-69.54659067142082, -41.33308980149023], [-69.5470307573117, -41.332879267177006], [-69.54744473306789, -41.33264073141897], [-69.54782944808392, -41.332376009617256], [-69.54818197444622, -41.332087116464635], [-69.54849962921632, -41.33177625061243], [-69.5487799948496, -41.331445777937475], [-69.5490209375943, -41.331098213536386], [-69.54922062373068, -41.330736202584106], [-69.54937753352662, -41.33036250020258], [-69.54949047280387, -41.32997995049258], [-69.54955858202631, -41.329591464888374], [-69.54958134284163, -41.3292], [-69.54955858202631, -41.32880853511163], [-69.54949047280387, -41.32842004950742], [-69.54937753352662, -41.32803749979742], [-69.54922062373068, -41.327663797415894], [-69.5490209375943, -41.327301786463615], [-69.5487799948496, -41.326954222062525], [-69.54849962921632, -41.32662374938757], [-69.54818197444622, -41.326312883535365], [-69.54782944808392, -41.326023990382744], [-69.54744473306789, -41.32575926858103], [-69.5470307573117, -41.325520732822994], [-69.54659067142082, -41.32531019850977], [-69.5461278247146, -41.32512926793462], [-69.54564573973597, -41.32497931808846], [-69.5451480854427, -41.32486149018016], [-69.54463864928445, -41.32477668095126], [-69.544121308378, -41.32472553585119], [-69.5436, -41.324708444125044]]]}}]}